OBJECT_NAME,OBJECT_ID,EPOCH,MEAN_MOTION,ECCENTRICITY,INCLINATION,RA_OF_ASC_NODE,ARG_OF_PERICENTER,MEAN_ANOMALY,EPHEMERIS_TYPE,CLASSIFICATION_TYPE,NORAD_CAT_ID,ELEMENT_SET_NO,REV_AT_EPOCH,BSTAR,MEAN_MOTION_DOT,MEAN_MOTION_DDOT
THAICOM 6,2014-002A,2026-06-09T10:17:22.028352,1.00269478,.00045175,0.0849,104.9062,359.5049,26.2248,0,U,39500,999,4538,0,-.103E-5,0
TDRS 12,2014-004A,2026-06-10T11:23:09.786912,1.00269207,.00029438,3.9703,18.9696,198.2067,171.5410,0,U,39504,999,4421,0,-.255E-5,0
ABS-2,2014-006A,2026-06-10T10:58:38.906400,1.00271205,.00039888,0.0360,80.2166,345.2264,72.9675,0,U,39508,999,4521,0,-.69E-6,0
ATHENA-FIDUS,2014-006B,2026-06-09T04:57:44.737056,1.00270971,.0001428,0.0437,101.5707,352.5836,275.6670,0,U,39509,999,4500,0,.171E-5,0
TURKSAT 4A,2014-007A,2026-06-10T13:29:25.840896,1.00270945,.00013783,0.0493,297.1277,24.7018,181.4396,0,U,39522,999,4490,0,.164E-5,0
NAVSTAR 69 (USA 248),2014-008A,2026-06-09T04:58:46.170048,2.00559266,.00842391,53.6534,149.6452,231.1478,128.1054,0,U,39533,999,8952,0,.109E-5,0
GPM-CORE,2014-009C,2026-06-10T12:57:42.870528,15.45479111,.00121104,64.9727,330.3870,270.7929,89.1824,0,U,39574,999,69678,.16862957E-3,.7895E-4,0
EXPRESS-AT1,2014-010A,2026-06-10T16:07:01.468128,1.00302247,.00038768,0.2392,85.7817,37.6528,78.9488,0,U,39612,999,4475,0,.48E-6,0
EXPRESS-AT2,2014-010B,2026-06-10T13:33:25.458336,1.00270838,.0000144,0.0139,299.4463,31.7783,187.0539,0,U,39613,999,4443,0,.96E-6,0
AMAZONAS 4A,2014-011A,2026-06-10T12:56:19.010688,1.00272327,.00037861,0.0636,196.1032,271.6308,271.2516,0,U,39616,999,4464,0,-.235E-5,0
ASTRA 5B,2014-011B,2026-06-10T13:24:11.344032,1.00270726,.00019534,0.0529,323.1110,104.5245,55.8212,0,U,39617,999,4460,0,.154E-5,0
COSMOS 2492 [GLONASS-M],2014-012A,2026-06-09T08:39:27.110016,2.13103521,.00104861,65.3026,314.2024,325.9791,33.9512,0,U,39620,999,9507,0,-.33E-6,0
SJ-11-06,2014-014A,2026-06-10T14:18:54.139680,14.61846950,.00141779,97.9482,188.6064,12.6747,347.4808,0,U,39624,999,64973,.93071284E-4,.42E-5,0
SENTINEL-1A,2014-016A,2026-06-10T12:14:54.640032,14.59199013,.00014362,98.1783,169.1406,80.9924,279.1438,0,U,39634,999,64904,.70739944E-4,.288E-5,0
IRNSS-1B,2014-017A,2026-06-09T20:57:27.250848,1.00274052,.00229837,28.9342,240.5292,189.3707,197.7737,0,U,39635,999,4472,0,.122E-5,0
LUCH-5V,2014-023A,2026-06-10T03:28:34.682304,1.00266717,.00027976,5.1149,69.8220,35.5646,299.9192,0,U,39727,999,4428,0,-.251E-5,0
KAZSAT-3,2014-023B,2026-06-10T13:34:10.386336,1.00271028,.00000713,0.0282,53.1694,16.0615,91.7258,0,U,39728,999,4239,0,.78E-6,0
KAZEOSAT 1,2014-024A,2026-06-10T15:19:09.348960,14.42078566,.00014638,98.3203,234.2484,75.7406,284.3947,0,U,39731,999,63761,.14060573E-3,.419E-5,0
NAVSTAR 70 (USA 251),2014-026A,2026-06-09T23:33:21.175776,2.00561453,.003823,56.5019,331.7980,326.6683,33.0994,0,U,39741,999,8839,0,-.59E-6,0
COSMOS 2496 (RODNIK-S 10),2014-028A,2026-06-10T13:59:42.309312,12.42878605,.00212896,82.4442,112.8671,92.4804,267.8713,0,U,39761,999,54669,.56394654E-3,.88E-6,0
COSMOS 2497 (RODNIK-S 11),2014-028B,2026-06-10T13:24:13.838400,12.42894039,.00218621,82.4489,114.5696,87.8177,272.5406,0,U,39762,999,54669,.20466054E-3,.38E-6,0
COSMOS 2498 (RODNIK-S 12),2014-028C,2026-06-10T14:48:32.673312,12.42980145,.0022563,82.4451,113.0230,87.2770,273.0892,0,U,39763,999,54673,.27144373E-3,.48E-6,0
ALOS-2,2014-029A,2026-06-10T13:53:26.998080,14.79471427,.000167,97.9209,258.8375,90.9504,269.1899,0,U,39766,999,65060,.25605729E-3,.1861E-4,0
UNIFORM 1,2014-029B,2026-06-10T12:33:33.989184,14.95823893,.00045317,97.8045,258.9329,344.8154,15.2930,0,U,39767,999,65322,.15419352E-3,.1663E-4,0
SOCRATES,2014-029C,2026-06-10T06:35:21.215904,14.94762759,.00062749,97.9071,274.6788,16.5800,343.5624,0,U,39768,999,65337,.17626866E-3,.1857E-4,0
RISING 2,2014-029D,2026-06-10T12:48:47.585376,14.98471002,.00019446,97.6522,230.1699,358.3339,1.7876,0,U,39769,999,65255,.47046986E-3,.5567E-4,0
EUTELSAT 3B,2014-030A,2026-06-10T08:09:58.559040,1.00272718,.00038921,0.0612,0.0693,79.7428,304.4970,0,U,39773,999,4399,0,.37E-6,0
COSMOS 2500 [GLONASS-M],2014-032A,2026-06-09T12:44:02.760864,2.13106105,.00070816,65.2371,313.9442,183.5959,176.3964,0,U,40001,999,9329,0,-.34E-6,0
KAZEOSAT 2,2014-033A,2026-06-10T15:05:20.888736,14.85460365,.00085059,97.5416,1.5873,351.8156,8.2920,0,U,40010,999,64798,.25806799E-4,.172E-5,0
HODOYOSHI-4,2014-033B,2026-06-10T13:53:45.753792,14.88110373,.00230275,97.5457,346.7208,331.0581,28.9358,0,U,40011,999,64782,.56224427E-4,.467E-5,0
UNISAT-6,2014-033C,2026-06-10T08:13:14.687904,14.88209392,.00464266,97.7868,314.1760,91.2128,269.4408,0,U,40012,999,64514,.26042012E-3,.2394E-4,0
DEIMOS-2,2014-033D,2026-06-10T14:50:17.613024,14.93712071,.00020057,97.5845,36.3377,57.3416,302.7998,0,U,40013,999,63674,.15580031E-3,.1594E-4,0
BUGSAT-1 (TITA),2014-033E,2026-06-10T13:34:50.367936,15.15514147,.0027553,98.0422,253.7280,200.7327,159.2789,0,U,40014,999,65483,.2697834E-3,.5083E-4,0
HODOYOSHI-3,2014-033F,2026-06-10T04:17:59.657280,14.85374333,.003332,97.6411,324.5022,20.2759,339.9771,0,U,40015,999,64658,.11647E-3,.959E-5,0
SAUDISAT 4,2014-033G,2026-06-10T06:55:04.308384,14.79535246,.0046239,97.7575,307.6620,95.7410,264.9076,0,U,40016,999,64505,.90933414E-4,.641E-5,0
APRIZESAT 9,2014-033J,2026-06-10T14:58:14.367360,14.74205655,.00652438,97.9052,294.9831,220.4748,139.1599,0,U,40018,999,64259,.91505514E-4,.572E-5,0
APRIZESAT 10,2014-033K,2026-06-10T07:46:26.031360,14.70876511,.00775499,97.9641,288.4368,296.1424,63.1820,0,U,40019,999,64124,.64657736E-4,.36E-5,0
BRITE-CA1 (TORONTO),2014-033L,2026-06-10T13:59:35.280672,14.72667572,.00773765,97.9731,290.6330,298.5340,60.8094,0,U,40020,999,64124,.98553247E-4,.603E-5,0
DUCHIFAT-1,2014-033M,2026-06-10T10:21:09.914400,15.63249626,.00041976,98.0468,219.6499,126.9864,233.1777,0,U,40021,999,65469,.10615932E-2,.98092E-3,0
NANOSATC-BR1,2014-033Q,2026-06-10T12:58:13.395648,15.31244609,.00037786,98.0734,193.3401,181.7238,178.3988,0,U,40024,999,65296,.49266744E-3,.14797E-3,0
QB50P1,2014-033R,2026-06-10T13:25:18.984000,15.18160069,.00072406,98.0970,172.2408,241.5773,118.4730,0,U,40025,999,65202,.35728158E-3,.7227E-4,0
DTUSAT-2,2014-033W,2026-06-10T12:01:19.334208,15.14932323,.00061861,98.0861,158.8038,253.0774,106.9779,0,U,40030,999,65167,.30624998E-3,.5635E-4,0
QB50P2,2014-033Y,2026-06-10T11:53:58.358112,15.15072964,.00073027,98.0751,157.9598,184.9608,175.1552,0,U,40032,999,65165,.31530919E-3,.5829E-4,0
PERSEUS-M2,2014-033AD,2026-06-10T13:45:08.802720,14.95491359,.00113119,97.9963,111.9792,329.4541,30.6019,0,U,40037,999,64979,.66539638E-4,.676E-5,0
PERSEUS-M1,2014-033AF,2026-06-10T13:07:03.664416,14.95613103,.0010696,97.9645,105.5698,326.6883,33.3663,0,U,40039,999,64964,.12218588E-3,.1297E-4,0
POLYITAN-1,2014-033AJ,2026-06-10T14:10:50.161440,15.33024156,.00081494,98.0952,187.2288,160.1967,199.9591,0,U,40042,999,65258,.50688944E-3,.16113E-3,0
TIGRISAT,2014-033AK,2026-06-10T04:13:50.355264,14.85135319,.0050709,97.7822,311.3494,97.5926,263.1053,0,U,40043,999,64458,.24109E-3,.2056E-4,0
LEMUR-1,2014-033AL,2026-06-10T05:16:48.686880,14.85218903,.0049756,97.7867,311.1809,100.8769,259.8051,0,U,40044,999,64443,.24896E-3,.2127E-4,0
AEROCUBE 6A,2014-033AM,2026-06-10T06:39:27.336672,14.98032072,.0039319,97.7224,328.3001,41.0482,319.3687,0,U,40045,999,64558,.46997E-3,.5583E-4,0
AEROCUBE 6B,2014-033AN,2026-06-09T08:27:13.837536,14.99486502,.00389335,97.7232,327.1573,35.9586,324.4245,0,U,40046,999,64558,.474951E-3,.5861E-4,0
SPOT 7,2014-034A,2026-06-10T14:33:31.900608,14.60953221,.00011937,98.0630,224.2680,87.8130,272.3207,0,U,40053,999,63617,.11116405E-3,.499E-5,0
CANX-4,2014-034C,2026-06-10T14:23:14.364384,14.81252527,.00136037,98.3131,36.6704,37.2327,322.9825,0,U,40055,999,64355,.11135788E-3,.811E-5,0
CANX-5,2014-034D,2026-06-10T14:21:05.595552,14.81269696,.00136144,98.3133,36.7122,37.3826,322.8330,0,U,40056,999,63436,.11204197E-3,.817E-5,0
OCO 2,2014-035A,2026-06-10T13:30:59.800032,14.57105807,.00014881,98.2017,102.9572,86.4630,273.6738,0,U,40059,999,63508,.85633762E-4,.341E-5,0
GONETS-M 8,2014-036A,2026-06-10T14:35:08.569248,12.42985346,.00303758,82.5107,311.6695,161.8551,198.3620,0,U,40061,999,54163,.14762262E-3,.31E-6,0
GONETS-M 9,2014-036B,2026-06-10T15:34:09.645600,12.42950861,.00235343,82.5104,311.7225,167.7267,192.4391,0,U,40062,999,54164,.46603262E-3,.75E-6,0
GONETS-M 10,2014-036C,2026-06-10T15:08:36.346272,12.42945606,.00224168,82.5110,311.7477,154.3973,205.8222,0,U,40063,999,54143,.41281741E-3,.67E-6,0
METEOR-M 2,2014-037A,2026-06-10T14:23:01.783680,14.21459460,.00069729,98.5110,137.5710,60.2698,299.9173,0,U,40069,999,61838,.2051739E-5,-.38E-6,0
DX1,2014-037C,2026-06-10T13:53:19.533984,14.89965546,.00059128,98.3861,122.8791,302.1585,57.9057,0,U,40071,999,64512,.18168977E-3,.1688E-4,0
SKYSAT-B,2014-037D,2026-06-10T11:13:52.544928,14.88010442,.00044225,98.3834,120.0501,309.9925,50.0901,0,U,40072,999,64496,.13219065E-3,.1152E-4,0
UKUBE-1,2014-037F,2026-06-10T11:46:50.885472,15.13445461,.00021761,98.4238,164.0595,142.7393,217.3987,0,U,40074,999,64754,.45885898E-3,.8128E-4,0
TECHDEMOSAT-1 (TDS-1),2014-037H,2026-06-10T13:06:23.860800,15.13193993,.00046173,98.3808,153.1009,296.8413,63.2343,0,U,40076,999,64722,.36941282E-3,.6482E-4,0
O3B FM3,2014-038A,2026-06-09T02:38:41.803584,5.00115664,.0002144,0.0485,353.9617,143.6782,222.3788,0,U,40079,999,21264,0,-.9E-7,0
O3B FM7,2014-038B,2026-06-10T01:20:18.656736,5.00115646,.0003883,0.0481,345.1638,68.7363,306.1383,0,U,40080,999,21752,0,-.9E-7,0
O3B FM6,2014-038C,2026-06-10T11:34:51.060288,5.00115684,.00026306,0.0477,350.5770,88.4330,281.0220,0,U,40081,999,21749,0,-.9E-7,0
O3B FM8,2014-038D,2026-06-10T03:15:51.480000,5.00116040,.0002746,0.0478,349.4108,91.1583,279.4643,0,U,40082,999,21759,0,-.9E-7,0
ORBCOMM FM109,2014-040A,2026-06-10T14:12:26.548416,14.58837735,.00017403,47.0023,122.6680,228.2081,131.8656,0,U,40086,999,63338,.11674951E-3,.38E-5,0
